{
  "type": "FeatureCollection",
  "features": [
    {
      "type": "Feature",
      "properties": {
        "norad_id": 66976,
        "name": "STARLINK-35772",
        "group": "last-30-days",
        "lat": -16.795112689915687,
        "lon": 107.82305029867649,
        "alt_km": 348.01509542141866,
        "timestamp": "2025-12-19T08:58:48.085251+00:00",
        "meta_object_name": "STARLINK-35772",
        "meta_object_id": "2025-288T",
        "meta_epoch": "2025-12-18T22:00:00.999936",
        "meta_mean_motion": 15.75447402,
        "meta_eccentricity": 0.00020306,
        "meta_inclination": 43.0007,
        "meta_ra_of_asc_node": 129.4969,
        "meta_arg_of_pericenter": 264.2571,
        "meta_mean_anomaly": 353.9118,
        "meta_ephemeris_type": 0,
        "meta_classification_type": "U",
        "meta_norad_cat_id": 66976,
        "meta_element_set_no": 999,
        "meta_rev_at_epoch": 282,
        "meta_bstar": -0.0092201828,
        "meta_mean_motion_dot": -0.01292456,
        "meta_mean_motion_ddot": 0,
        "tle_line1": "1 66976U 25288T   25352.91667824 -.01292456  00000+0 -92202-2 0  9996",
        "tle_line2": "2 66976  43.0007 129.4969 0002030 264.2571 353.9118 15.75447402  2823"
      },
      "geometry": {
        "type": "Point",
        "coordinates": [
          107.82305029867649,
          -16.795112689915687
        ]
      }
    },
    {
      "type": "Feature",
      "properties": {
        "norad_id": 66977,
        "name": "STARLINK-35770",
        "group": "last-30-days",
        "lat": 41.84361282532964,
        "lon": -159.6055567503307,
        "alt_km": 314.22664006589,
        "timestamp": "2025-12-19T08:58:48.085261+00:00",
        "meta_object_name": "STARLINK-35770",
        "meta_object_id": "2025-288U",
        "meta_epoch": "2025-12-18T22:00:00.999936",
        "meta_mean_motion": 15.85223429,
        "meta_eccentricity": 0.00018093,
        "meta_inclination": 43.0017,
        "meta_ra_of_asc_node": 129.2789,
        "meta_arg_of_pericenter": 278.6189,
        "meta_mean_anomaly": 66.6384,
        "meta_ephemeris_type": 0,
        "meta_classification_type": "U",
        "meta_norad_cat_id": 66977,
        "meta_element_set_no": 999,
        "meta_rev_at_epoch": 282,
        "meta_bstar": -0.0065033605,
        "meta_mean_motion_dot": -0.01392933,
        "meta_mean_motion_ddot": 0,
        "tle_line1": "1 66977U 25288U   25352.91667824 -.01392933  00000+0 -65034-2 0  9991",
        "tle_line2": "2 66977  43.0017 129.2789 0001809 278.6189  66.6384 15.85223429  2825"
      },
      "geometry": {
        "type": "Point",
        "coordinates": [
          -159.6055567503307,
          41.84361282532964
        ]
      }
    },
    {
      "type": "Feature",
      "properties": {
        "norad_id": 66978,
        "name": "STARLINK-35787",
        "group": "last-30-days",
        "lat": 42.74841078248383,
        "lon": -150.85069511495232,
        "alt_km": 314.12319163288066,
        "timestamp": "2025-12-19T08:58:48.085271+00:00",
        "meta_object_name": "STARLINK-35787",
        "meta_object_id": "2025-288V",
        "meta_epoch": "2025-12-18T22:00:00.999936",
        "meta_mean_motion": 15.85254525,
        "meta_eccentricity": 0.00018519,
        "meta_inclination": 43.0018,
        "meta_ra_of_asc_node": 129.2623,
        "meta_arg_of_pericenter": 282.1631,
        "meta_mean_anomaly": 69.6024,
        "meta_ephemeris_type": 0,
        "meta_classification_type": "U",
        "meta_norad_cat_id": 66978,
        "meta_element_set_no": 999,
        "meta_rev_at_epoch": 282,
        "meta_bstar": -0.0066068988,
        "meta_mean_motion_dot": -0.01414077,
        "meta_mean_motion_ddot": 0,
        "tle_line1": "1 66978U 25288V   25352.91667824 -.01414077  00000+0 -66069-2 0  9995",
        "tle_line2": "2 66978  43.0018 129.2623 0001851 282.1631  69.6024 15.85254525  2828"
      },
      "geometry": {
        "type": "Point",
        "coordinates": [
          -150.85069511495232,
          42.74841078248383
        ]
      }
    },
    {
      "type": "Feature",
      "properties": {
        "norad_id": 66979,
        "name": "STARLINK-36107",
        "group": "last-30-days",
        "lat": 42.92137874594741,
        "lon": -147.24932078172347,
        "alt_km": 314.14857485442735,
        "timestamp": "2025-12-19T08:58:48.085283+00:00",
        "meta_object_name": "STARLINK-36107",
        "meta_object_id": "2025-288W",
        "meta_epoch": "2025-12-18T22:00:00.999936",
        "meta_mean_motion": 15.85236748,
        "meta_eccentricity": 0.0001763,
        "meta_inclination": 43.0017,
        "meta_ra_of_asc_node": 129.2556,
        "meta_arg_of_pericenter": 281.2672,
        "meta_mean_anomaly": 73.1844,
        "meta_ephemeris_type": 0,
        "meta_classification_type": "U",
        "meta_norad_cat_id": 66979,
        "meta_element_set_no": 999,
        "meta_rev_at_epoch": 282,
        "meta_bstar": -0.0066546597,
        "meta_mean_motion_dot": -0.0145041,
        "meta_mean_motion_ddot": 0,
        "tle_line1": "1 66979U 25288W   25352.91667824 -.01450410  00000+0 -66547-2 0  9998",
        "tle_line2": "2 66979  43.0017 129.2556 0001763 281.2672  73.1844 15.85236748  2827"
      },
      "geometry": {
        "type": "Point",
        "coordinates": [
          -147.24932078172347,
          42.92137874594741
        ]
      }
    },
    {
      "type": "Feature",
      "properties": {
        "norad_id": 66980,
        "name": "STARLINK-36086",
        "group": "last-30-days",
        "lat": 42.979385565219374,
        "lon": -144.10906762779047,
        "alt_km": 314.1515862189781,
        "timestamp": "2025-12-19T08:58:48.085297+00:00",
        "meta_object_name": "STARLINK-36086",
        "meta_object_id": "2025-288X",
        "meta_epoch": "2025-12-18T22:00:00.999936",
        "meta_mean_motion": 15.85241547,
        "meta_eccentricity": 0.00017226,
        "meta_inclination": 43.0017,
        "meta_ra_of_asc_node": 129.2495,
        "meta_arg_of_pericenter": 279.9607,
        "meta_mean_anomaly": 76.792,
        "meta_ephemeris_type": 0,
        "meta_classification_type": "U",
        "meta_norad_cat_id": 66980,
        "meta_element_set_no": 999,
        "meta_rev_at_epoch": 282,
        "meta_bstar": -0.0066932428,
        "meta_mean_motion_dot": -0.01458142,
        "meta_mean_motion_ddot": 0,
        "tle_line1": "1 66980U 25288X   25352.91667824 -.01458142  00000+0 -66932-2 0  9998",
        "tle_line2": "2 66980  43.0017 129.2495 0001722 279.9607  76.7920 15.85241547  2825"
      },
      "geometry": {
        "type": "Point",
        "coordinates": [
          -144.10906762779047,
          42.979385565219374
        ]
      }
    },
    {
      "type": "Feature",
      "properties": {
        "norad_id": 66981,
        "name": "STARLINK-36142",
        "group": "last-30-days",
        "lat": 42.95524430305662,
        "lon": -141.1496081031158,
        "alt_km": 314.2227184126077,
        "timestamp": "2025-12-19T08:58:48.085308+00:00",
        "meta_object_name": "STARLINK-36142",
        "meta_object_id": "2025-288Y",
        "meta_epoch": "2025-12-18T22:00:00.999936",
        "meta_mean_motion": 15.85251826,
        "meta_eccentricity": 0.00018041,
        "meta_inclination": 43.0018,
        "meta_ra_of_asc_node": 129.2442,
        "meta_arg_of_pericenter": 278.9299,
        "meta_mean_anomaly": 79.9794,
        "meta_ephemeris_type": 0,
        "meta_classification_type": "U",
        "meta_norad_cat_id": 66981,
        "meta_element_set_no": 999,
        "meta_rev_at_epoch": 282,
        "meta_bstar": -0.0067234376,
        "meta_mean_motion_dot": -0.01464686,
        "meta_mean_motion_ddot": 0,
        "tle_line1": "1 66981U 25288Y   25352.91667824 -.01464686  00000+0 -67234-2 0  9995",
        "tle_line2": "2 66981  43.0018 129.2442 0001804 278.9299  79.9794 15.85251826  2821"
      },
      "geometry": {
        "type": "Point",
        "coordinates": [
          -141.1496081031158,
          42.95524430305662
        ]
      }
    },
    {
      "type": "Feature",
      "properties": {
        "norad_id": 66982,
        "name": "STARLINK-36113",
        "group": "last-30-days",
        "lat": 42.850471880467936,
        "lon": -138.11550629110158,
        "alt_km": 314.2922338423614,
        "timestamp": "2025-12-19T08:58:48.085318+00:00",
        "meta_object_name": "STARLINK-36113",
        "meta_object_id": "2025-288Z",
        "meta_epoch": "2025-12-18T22:00:00.999936",
        "meta_mean_motion": 15.85264452,
        "meta_eccentricity": 0.00018625,
        "meta_inclination": 43.0015,
        "meta_ra_of_asc_node": 129.2383,
        "meta_arg_of_pericenter": 279.9181,
        "meta_mean_anomaly": 81.2093,
        "meta_ephemeris_type": 0,
        "meta_classification_type": "U",
        "meta_norad_cat_id": 66982,
        "meta_element_set_no": 999,
        "meta_rev_at_epoch": 282,
        "meta_bstar": -0.0067904197,
        "meta_mean_motion_dot": -0.01478458,
        "meta_mean_motion_ddot": 0,
        "tle_line1": "1 66982U 25288Z   25352.91667824 -.01478458  00000+0 -67904-2 0  9992",
        "tle_line2": "2 66982  43.0015 129.2383 0001862 279.9181  81.2093 15.85264452  2825"
      },
      "geometry": {
        "type": "Point",
        "coordinates": [
          -138.11550629110158,
          42.850471880467936
        ]
      }
    }
  ]
}